NORAD_CAT_ID,OBJECT_NAME,OBJECT_TYPE,EPOCH,MEAN_MOTION,ECCENTRICITY,INCLINATION,RA_OF_ASC_NODE,ARG_OF_PERICENTER,MEAN_ANOMALY,BSTAR,MEAN_MOTION_DOT,MEAN_MOTION_DDOT,TLE_LINE0,TLE_LINE1,TLE_LINE2,SEMIMAJOR_AXIS,PERIOD,APOGEE,PERIGEE,DECAYED
52291.0,STARLINK-3773,PAYLOAD,2022-05-24 14:00:01,15.73182462,0.0003994,53.2154,211.9969,6.9802,230.5588,-4.0178e-05,-6.257e-05,0.0,0 STARLINK-3773,1 52291U 22041AG  22144.58334491 -.00006257  00000-0 -40178-4 0  9994,2 52291  53.2154 211.9969 0003994   6.9802 230.5588 15.73182462  1302,6727.945,91.534,352.497,347.12300000000016,0.0
52291.0,STARLINK-3773,PAYLOAD,2022-05-24 22:00:00,15.73219276,0.0003816,53.2156,210.3456,2.9595,323.4877,-0.0009944,-0.00138101,0.0,0 STARLINK-3773,1 52291U 22041AG  22144.91667824 -.00138101  00000-0 -99440-3 0  9999,2 52291  53.2156 210.3456 0003816   2.9595 323.4877 15.73219276  1303,6727.84,91.532,352.273,347.13800000000015,0.0
52291.0,STARLINK-3773,PAYLOAD,2022-05-25 06:00:00,15.73118807,0.0003836,53.2159,208.6961,1.6731,53.6635,0.00047892,0.00066915,0.0,0 STARLINK-3773,1 52291U 22041AG  22145.25001157  .00066915  00000-0  47892-3 0  9993,2 52291  53.2159 208.6961 0003836   1.6731  53.6635 15.73118807  6517,6728.127,91.538,352.5730000000001,347.411,0.0
52291.0,STARLINK-3773,PAYLOAD,2022-05-25 14:00:01,15.73154875,0.0004134,53.2156,207.0486,0.6561,143.5373,0.0011867,0.0016904,0.0,0 STARLINK-3773,1 52291U 22041AG  22145.58334491  .00169040  00000-0  11867-2 0  9994,2 52291  53.2156 207.0486 0004134   0.6561 143.5373 15.73154875  1306,6728.024,91.536,352.67,347.107,0.0
52291.0,STARLINK-3773,PAYLOAD,2022-05-25 22:00:00,15.73277707,0.0003922,53.2153,205.3973,358.9062,234.2404,-0.00033768,-0.00047927,0.0,0 STARLINK-3773,1 52291U 22041AG  22145.91667824 -.00047927  00000-0 -33768-3 0  9996,2 52291  53.2153 205.3973 0003922 358.9062 234.2404 15.73277707  6627,6727.674,91.529,352.177,346.9,0.0
52291.0,STARLINK-3773,PAYLOAD,2022-05-26 14:00:01,15.73206957,0.000409,53.2154,202.1001,359.204,51.9004,-0.00020129,-0.000288,0.0,0 STARLINK-3773,1 52291U 22041AG  22146.58334491 -.00028800  00000-0 -20129-3 0  9997,2 52291  53.2154 202.1001 0004090 359.2040  51.9004 15.73206957  1301,6727.875,91.533,352.492,346.98900000000015,0.0
52291.0,STARLINK-3773,PAYLOAD,2022-05-26 22:00:00,15.7315365,0.0003938,53.2157,200.4486,356.2641,143.7798,0.00016564,0.00022648,0.0,0 STARLINK-3773,1 52291U 22041AG  22146.91667824  .00022648  00000-0  16564-3 0  9993,2 52291  53.2157 200.4486 0003938 356.2641 143.7798 15.73153650  1307,6728.026999999999,91.536,352.542,347.24300000000005,0.0
52291.0,STARLINK-3773,PAYLOAD,2022-05-27 02:00:01,15.73129376,0.0003866,53.2156,199.6232,357.4682,7.0124,0.00065358,0.00091861,0.0,0 STARLINK-3773,1 52291U 22041AG  22147.08334491  .00091861  00000-0  65358-3 0  9991,2 52291  53.2156 199.6232 0003866 357.4682   7.0124 15.73129376  6805,6728.097,91.537,352.56300000000016,347.36,0.0
52291.0,STARLINK-3773,PAYLOAD,2022-05-27 14:00:01,15.73171421,0.0004253,53.2153,197.1517,359.8968,317.9259,0.00064019,0.00090118,0.0,0 STARLINK-3773,1 52291U 22041AG  22147.58334491  .00090118  00000-0  64019-3 0  9993,2 52291  53.2153 197.1517 0004253 359.8968 317.9259 15.73171421  6883,6727.977,91.535,352.70300000000015,346.98,0.0
52291.0,STARLINK-3773,PAYLOAD,2022-05-27 22:00:01,15.73245092,0.0003996,53.2151,195.5,1.3862,45.4493,-0.00026791,-0.00038145,0.0,0 STARLINK-3773,1 52291U 22041AG  22147.91668981 -.00038145  00000-0 -26791-3 0  9993,2 52291  53.2151 195.5000 0003996   1.3862  45.4493 15.73245092  1306,6727.767,91.531,352.32,346.9430000000001,0.0
52291.0,STARLINK-3773,PAYLOAD,2022-05-28 04:00:00,15.73217908,0.0003962,53.2151,194.2629,4.6647,18.8456,0.0004171,0.00058388,0.0,0 STARLINK-3773,1 52291U 22041AG  22148.16667824  .00058388  00000-0  41710-3 0  9993,2 52291  53.2151 194.2629 0003962   4.6647  18.8456 15.73217908  6975,6727.844,91.532,352.375,347.0440000000001,0.0
52291.0,STARLINK-3773,PAYLOAD,2022-05-28 13:02:55,15.73254982,0.0004165,53.2157,192.3982,5.5101,354.5964,9.4095e-05,0.00012637,0.0,0 STARLINK-3773,1 52291U 22041AG  22148.54370313  .00012637  00000-0  94095-4 0  9991,2 52291  53.2157 192.3982 0004165   5.5101 354.5964 15.73254982  5812,6727.738,91.53,352.406,346.801,0.0
52291.0,STARLINK-3773,PAYLOAD,2022-05-28 14:00:01,15.72827125,0.000378,53.2168,192.2019,1.6796,223.0622,0.0041077,0.00609949,0.0,0 STARLINK-3773,1 52291U 22041AG  22148.58334491  .00609949  00000-0  41077-2 0  9990,2 52291  53.2168 192.2019 0003780   1.6796 223.0622 15.72827125  7045,6728.958000000001,91.555,353.367,348.28,0.0
52291.0,STARLINK-3773,PAYLOAD,2022-05-28 22:00:00,15.73213434,0.0004027,53.2151,190.5513,1.2301,312.4922,5.612300000000001e-05,7.266e-05,0.0,0 STARLINK-3773,1 52291U 22041AG  22148.91667824  .00007266  00000-0  56123-4 0  9990,2 52291  53.2151 190.5513 0004027   1.2301 312.4922 15.73213434  7094,6727.857,91.532,352.431,347.01300000000015,0.0
52291.0,STARLINK-3773,PAYLOAD,2022-05-29 14:00:01,15.73128505,0.0004304,53.2147,187.2542,2.1673,129.373,0.00024122,0.00033276,0.0,0 STARLINK-3773,1 52291U 22041AG  22149.58334491  .00033276  00000-0  24122-3 0  9998,2 52291  53.2147 187.2542 0004304   2.1673 129.3730 15.73128505  7191,6728.099,91.537,352.86,347.0680000000001,0.0
52291.0,STARLINK-3773,PAYLOAD,2022-05-29 22:00:00,15.73103482,0.0004017,53.2146,185.6027,1.1349,219.2899,0.00038507,0.00053561,0.0,0 STARLINK-3773,1 52291U 22041AG  22149.91667824  .00053561  00000-0  38507-3 0  9995,2 52291  53.2146 185.6027 0004017   1.1349 219.2899 15.73103482  1309,6728.17,91.539,352.73800000000006,347.333,0.0
52291.0,STARLINK-3773,PAYLOAD,2022-05-30 06:00:00,15.731239000000002,0.0004069,53.2146,183.9543,3.7653,305.4928,0.00090503,0.00127968,0.0,0 STARLINK-3773,1 52291U 22041AG  22150.25001157  .00127968  00000-0  90503-3 0  9992,2 52291  53.2146 183.9543 0004069   3.7653 305.4928 15.73123900  7300,6728.111999999999,91.538,352.715,347.23900000000015,0.0
52291.0,STARLINK-3773,PAYLOAD,2022-05-30 10:47:23,15.73156413,0.0004351,53.2151,182.9656,5.3413,354.7653,1.9309e-05,2.082e-05,0.0,0 STARLINK-3773,1 52291U 22041AG  22150.44957541  .00002082  00000-0  19309-4 0  9995,2 52291  53.2151 182.9656 0004351   5.3413 354.7653 15.73156413  7336,6728.019,91.536,352.81199999999984,346.957,0.0
52291.0,STARLINK-3773,PAYLOAD,2022-05-30 14:00:01,15.73233219,0.0004312,53.2142,182.3061,4.6267,33.5053,0.00032048,0.00044677,0.0,0 STARLINK-3773,1 52291U 22041AG  22150.58334491  .00044677  00000-0  32048-3 0  9993,2 52291  53.2142 182.3061 0004312   4.6267  33.5053 15.73233219  1303,6727.8,91.531,352.566,346.764,0.0
52291.0,STARLINK-3773,PAYLOAD,2022-05-30 22:00:00,15.73209678,0.0004025,53.2146,180.6543,3.3012,123.8322,0.00025615,0.00035506,0.0,0 STARLINK-3773,1 52291U 22041AG  22150.91667824  .00035506  00000-0  25615-3 0  9992,2 52291  53.2146 180.6543 0004025   3.3012 123.8322 15.73209678  7409,6727.868,91.533,352.441,347.025,0.0
52291.0,STARLINK-3773,PAYLOAD,2022-05-31 04:00:00,15.73250159,0.0004082,53.2149,179.4174,3.4739,100.3569,-0.00056455,-0.00079325,0.0,0 STARLINK-3773,1 52291U 22041AG  22151.16667824 -.00079325  00000-0 -56455-3 0  9995,2 52291  53.2149 179.4174 0004082   3.4739 100.3569 15.73250159  7445,6727.752,91.53,352.36300000000006,346.871,0.0
52291.0,STARLINK-3773,PAYLOAD,2022-05-31 06:00:02,15.73228534,0.0004176,53.2148,179.0056,3.3007,212.8426,-0.00040971,-0.00057833,0.0,0 STARLINK-3773,1 52291U 22041AG  22151.25002315 -.00057833  00000-0 -40971-3 0  9999,2 52291  53.2148 179.0056 0004176   3.3007 212.8426 15.73228534  1302,6727.814,91.532,352.48800000000006,346.869,0.0
52291.0,STARLINK-3773,PAYLOAD,2022-05-31 14:00:01,15.73189454,0.0004391,53.2143,177.357,2.2557,302.7613,0.000466,0.00065287,0.0,0 STARLINK-3773,1 52291U 22041AG  22151.58334491  .00065287  00000-0  46600-3 0  9993,2 52291  53.2143 177.3570 0004391   2.2557 302.7613 15.73189454  7519,6727.925,91.534,352.744,346.836,0.0
52291.0,STARLINK-3773,PAYLOAD,2022-05-31 22:00:00,15.73212972,0.0004119,53.2143,175.7053,4.3973,29.5694,0.00046297,0.00064917,0.0,0 STARLINK-3773,1 52291U 22041AG  22151.91667824  .00064917  00000-0  46297-3 0  9990,2 52291  53.2143 175.7053 0004119   4.3973  29.5694 15.73212972  1306,6727.858,91.532,352.494,346.952,0.0
52291.0,STARLINK-3773,PAYLOAD,2022-06-01 06:00:00,15.73255437,0.0004255,53.2144,174.05700000000004,6.7963,116.1479,-0.00034894,-0.00049454,0.0,0 STARLINK-3773,1 52291U 22041AG  22152.25001157 -.00049454  00000-0 -34894-3 0  9990,2 52291  53.2144 174.0570 0004255   6.7963 116.1479 15.73255437  7616,6727.736999999999,91.53,352.465,346.73900000000015,0.0
52291.0,STARLINK-3773,PAYLOAD,2022-06-01 20:00:01,15.73176114,0.0004209,53.2148,171.1692,6.1471,182.4871,0.00036468,0.00050836,0.0,0 STARLINK-3773,1 52291U 22041AG  22152.83334491  .00050836  00000-0  36468-3 0  9997,2 52291  53.2148 171.1692 0004209   6.1471 182.4871 15.73176114  1306,6727.9630000000025,91.535,352.66,346.996,0.0
52291.0,STARLINK-3773,PAYLOAD,2022-06-02 18:04:19,15.73202384,0.0004472,53.2157,166.6178,11.9511,348.1615,-1.2455e-05,-2.374e-05,0.0,0 STARLINK-3773,1 52291U 22041AG  22153.75300641 -.00002374  00000-0 -12455-4 0  9996,2 52291  53.2157 166.6178 0004472  11.9511 348.1615 15.73202384  7857,6727.888000000001,91.533,352.76199999999994,346.745,0.0
52291.0,STARLINK-3773,PAYLOAD,2022-06-03 03:13:11,15.73222292,0.0004028,53.216,164.7313,16.8314,343.2839,-6.419400000000002e-06,-1.527e-05,0.0,0 STARLINK-3773,1 52291U 22041AG  22154.13416030 -.00001527  00000-0 -64194-5 0  9996,2 52291  53.2160 164.7313 0004028  16.8314 343.2839 15.73222292  7914,6727.831999999999,91.532,352.407,346.987,0.0
52291.0,STARLINK-3773,PAYLOAD,2022-06-03 07:46:43,15.74482775,0.0004971999999999,53.2182,163.7876,274.9276,85.1177,0.0020907,0.00321676,0.0,0 STARLINK-3773,1 52291U 22041AG  22154.32411202  .00321676  00000-0  20907-2 0  9992,2 52291  53.2182 163.7876 0004972 274.9276  85.1177 15.74482775  7948,6724.24,91.459,349.449,342.76199999999994,0.0
